[{"OBJECT_NAME":"SL-8 R/B","OBJECT_ID":"1991-006B","EPOCH":"2026-03-17T04:17:55.048704","MEAN_MOTION":13.77495265,"ECCENTRICITY":0.00226293,"INCLINATION":82.946,"RA_OF_ASC_NODE":164.4783,"ARG_OF_PERICENTER":17.9217,"MEAN_ANOMALY":46.0235,"EPHEMERIS_TYPE":0,"CLASSIFICATION_TYPE":"U","NORAD_CAT_ID":21088,"ELEMENT_SET_NO":999,"REV_AT_EPOCH":76510,"BSTAR":5.999528e-5,"MEAN_MOTION_DOT":7.5e-7,"MEAN_MOTION_DDOT":0},{"OBJECT_NAME":"OKEAN-3","OBJECT_ID":"1991-039A","EPOCH":"2026-03-17T04:37:42.794688","MEAN_MOTION":15.04860503,"ECCENTRICITY":0.0013201,"INCLINATION":82.5199,"RA_OF_ASC_NODE":329.5757,"ARG_OF_PERICENTER":309.2448,"MEAN_ANOMALY":50.7606,"EPHEMERIS_TYPE":0,"CLASSIFICATION_TYPE":"U","NORAD_CAT_ID":21397,"ELEMENT_SET_NO":999,"REV_AT_EPOCH":86616,"BSTAR":0.00015976393,"MEAN_MOTION_DOT":2.289e-5,"MEAN_MOTION_DDOT":0},{"OBJECT_NAME":"COSMOS 2151","OBJECT_ID":"1991-042A","EPOCH":"2026-03-17T06:53:59.002080","MEAN_MOTION":15.00136606,"ECCENTRICITY":0.00135131,"INCLINATION":82.493,"RA_OF_ASC_NODE":76.3446,"ARG_OF_PERICENTER":40.3969,"MEAN_ANOMALY":319.8256,"EPHEMERIS_TYPE":0,"CLASSIFICATION_TYPE":"U","NORAD_CAT_ID":21422,"ELEMENT_SET_NO":999,"REV_AT_EPOCH":86433,"BSTAR":0.00015908178,"MEAN_MOTION_DOT":2.015e-5,"MEAN_MOTION_DDOT":0},{"OBJECT_NAME":"SL-14 R/B","OBJECT_ID":"1991-042B","EPOCH":"2026-03-17T02:49:58.295712","MEAN_MOTION":14.81837504,"ECCENTRICITY":0.00162395,"INCLINATION":82.4937,"RA_OF_ASC_NODE":213.2168,"ARG_OF_PERICENTER":212.5659,"MEAN_ANOMALY":147.4555,"EPHEMERIS_TYPE":0,"CLASSIFICATION_TYPE":"U","NORAD_CAT_ID":21423,"ELEMENT_SET_NO":999,"REV_AT_EPOCH":85417,"BSTAR":5.3927066e-5,"MEAN_MOTION_DOT":4.5e-6,"MEAN_MOTION_DDOT":0},{"OBJECT_NAME":"ERS-1","OBJECT_ID":"1991-050A","EPOCH":"2026-03-17T01:34:18.126912","MEAN_MOTION":14.39455,"ECCENTRICITY":0.00320327,"INCLINATION":98.7875,"RA_OF_ASC_NODE":94.4854,"ARG_OF_PERICENTER":178.4627,"MEAN_ANOMALY":181.6664,"EPHEMERIS_TYPE":0,"CLASSIFICATION_TYPE":"U","NORAD_CAT_ID":21574,"ELEMENT_SET_NO":999,"REV_AT_EPOCH":81679,"BSTAR":0.00010043938,"MEAN_MOTION_DOT":2.68e-6,"MEAN_MOTION_DDOT":0},{"OBJECT_NAME":"ARIANE 40 R/B","OBJECT_ID":"1991-050F","EPOCH":"2026-03-17T04:02:15.670752","MEAN_MOTION":14.42899144,"ECCENTRICITY":0.00041264,"INCLINATION":98.1996,"RA_OF_ASC_NODE":128.1236,"ARG_OF_PERICENTER":64.8706,"MEAN_ANOMALY":295.2912,"EPHEMERIS_TYPE":0,"CLASSIFICATION_TYPE":"U","NORAD_CAT_ID":21610,"ELEMENT_SET_NO":999,"REV_AT_EPOCH":82007,"BSTAR":9.481941e-5,"MEAN_MOTION_DOT":2.75e-6,"MEAN_MOTION_DDOT":0},{"OBJECT_NAME":"INTERCOSMOS 25","OBJECT_ID":"1991-086A","EPOCH":"2026-03-17T02:05:44.714112","MEAN_MOTION":12.12026893,"ECCENTRICITY":0.14868334,"INCLINATION":82.6042,"RA_OF_ASC_NODE":305.5372,"ARG_OF_PERICENTER":100.9968,"MEAN_ANOMALY":276.1416,"EPHEMERIS_TYPE":0,"CLASSIFICATION_TYPE":"U","NORAD_CAT_ID":21819,"ELEMENT_SET_NO":999,"REV_AT_EPOCH":49758,"BSTAR":0.00032887618,"MEAN_MOTION_DOT":1.715e-5,"MEAN_MOTION_DDOT":0},{"OBJECT_NAME":"SL-8 R/B","OBJECT_ID":"1992-008B","EPOCH":"2026-03-17T07:22:02.944128","MEAN_MOTION":13.75969723,"ECCENTRICITY":0.00358089,"INCLINATION":82.9222,"RA_OF_ASC_NODE":262.1101,"ARG_OF_PERICENTER":112.7001,"MEAN_ANOMALY":60.3171,"EPHEMERIS_TYPE":0,"CLASSIFICATION_TYPE":"U","NORAD_CAT_ID":21876,"ELEMENT_SET_NO":999,"REV_AT_EPOCH":71046,"BSTAR":-5.574614e-6,"MEAN_MOTION_DOT":1.0e-7,"MEAN_MOTION_DDOT":0},{"OBJECT_NAME":"SL-8 R/B","OBJECT_ID":"1992-020B","EPOCH":"2026-03-17T04:24:07.623648","MEAN_MOTION":13.75550095,"ECCENTRICITY":0.00275354,"INCLINATION":82.9324,"RA_OF_ASC_NODE":148.1983,"ARG_OF_PERICENTER":276.8905,"MEAN_ANOMALY":139.58,"EPHEMERIS_TYPE":0,"CLASSIFICATION_TYPE":"U","NORAD_CAT_ID":21938,"ELEMENT_SET_NO":999,"REV_AT_EPOCH":70216,"BSTAR":4.2409923e-5,"MEAN_MOTION_DOT":5.6e-7,"MEAN_MOTION_DDOT":0},{"OBJECT_NAME":"USA 81","OBJECT_ID":"1992-023A","EPOCH":"2026-03-17T04:52:56.585280","MEAN_MOTION":14.32370461,"ECCENTRICITY":0.00022626,"INCLINATION":85.007,"RA_OF_ASC_NODE":127.106,"ARG_OF_PERICENTER":71.9086,"MEAN_ANOMALY":288.2353,"EPHEMERIS_TYPE":0,"CLASSIFICATION_TYPE":"U","NORAD_CAT_ID":21949,"ELEMENT_SET_NO":999,"REV_AT_EPOCH":9586,"BSTAR":5.75057e-5,"MEAN_MOTION_DOT":1.75e-6,"MEAN_MOTION_DDOT":0},{"OBJECT_NAME":"COSMOS 2219","OBJECT_ID":"1992-076A","EPOCH":"2026-03-17T03:51:24.767712","MEAN_MOTION":14.14093639,"ECCENTRICITY":0.00185446,"INCLINATION":71.0641,"RA_OF_ASC_NODE":2.4515,"ARG_OF_PERICENTER":196.6805,"MEAN_ANOMALY":163.371,"EPHEMERIS_TYPE":0,"CLASSIFICATION_TYPE":"U","NORAD_CAT_ID":22219,"ELEMENT_SET_NO":999,"REV_AT_EPOCH":71943,"BSTAR":-1.6717485e-5,"MEAN_MOTION_DOT":-7.9e-7,"MEAN_MOTION_DDOT":0},{"OBJECT_NAME":"SL-16 R/B","OBJECT_ID":"1992-076B","EPOCH":"2026-03-16T23:46:32.812320","MEAN_MOTION":14.16859538,"ECCENTRICITY":0.00105721,"INCLINATION":71.0006,"RA_OF_ASC_NODE":172.9956,"ARG_OF_PERICENTER":82.8632,"MEAN_ANOMALY":92.0301,"EPHEMERIS_TYPE":0,"CLASSIFICATION_TYPE":"U","NORAD_CAT_ID":22220,"ELEMENT_SET_NO":999,"REV_AT_EPOCH":72286,"BSTAR":8.642696e-5,"MEAN_MOTION_DOT":1.26e-6,"MEAN_MOTION_DDOT":0},{"OBJECT_NAME":"COSMOS 2221","OBJECT_ID":"1992-080A","EPOCH":"2026-03-17T06:16:21.228384","MEAN_MOTION":14.96231037,"ECCENTRICITY":0.00146752,"INCLINATION":82.5002,"RA_OF_ASC_NODE":271.8263,"ARG_OF_PERICENTER":161.9922,"MEAN_ANOMALY":198.1823,"EPHEMERIS_TYPE":0,"CLASSIFICATION_TYPE":"U","NORAD_CAT_ID":22236,"ELEMENT_SET_NO":999,"REV_AT_EPOCH":78192,"BSTAR":0.00015592674,"MEAN_MOTION_DOT":1.788e-5,"MEAN_MOTION_DDOT":0},{"OBJECT_NAME":"SL-16 R/B","OBJECT_ID":"1992-093B","EPOCH":"2026-03-17T03:50:12.885504","MEAN_MOTION":14.15447398,"ECCENTRICITY":0.00062764,"INCLINATION":71.024,"RA_OF_ASC_NODE":348.5856,"ARG_OF_PERICENTER":286.1112,"MEAN_ANOMALY":73.932,"EPHEMERIS_TYPE":0,"CLASSIFICATION_TYPE":"U","NORAD_CAT_ID":22285,"ELEMENT_SET_NO":999,"REV_AT_EPOCH":71421,"BSTAR":7.4036577e-5,"MEAN_MOTION_DOT":9.7e-7,"MEAN_MOTION_DDOT":0},{"OBJECT_NAME":"COSMOS 2228","OBJECT_ID":"1992-094A","EPOCH":"2026-03-17T06:32:39.170112","MEAN_MOTION":14.97229583,"ECCENTRICITY":0.00165616,"INCLINATION":82.5163,"RA_OF_ASC_NODE":230.0491,"ARG_OF_PERICENTER":276.974,"MEAN_ANOMALY":82.9598,"EPHEMERIS_TYPE":0,"CLASSIFICATION_TYPE":"U","NORAD_CAT_ID":22286,"ELEMENT_SET_NO":999,"REV_AT_EPOCH":77719,"BSTAR":0.00015869338,"MEAN_MOTION_DOT":1.867e-5,"MEAN_MOTION_DDOT":0},{"OBJECT_NAME":"SL-16 R/B","OBJECT_ID":"1993-016B","EPOCH":"2026-03-17T01:25:54.730272","MEAN_MOTION":14.1530853,"ECCENTRICITY":0.0012243,"INCLINATION":71.0083,"RA_OF_ASC_NODE":199.7026,"ARG_OF_PERICENTER":304.5307,"MEAN_ANOMALY":55.466,"EPHEMERIS_TYPE":0,"CLASSIFICATION_TYPE":"U","NORAD_CAT_ID":22566,"ELEMENT_SET_NO":999,"REV_AT_EPOCH":70321,"BSTAR":-9.1206835e-5,"MEAN_MOTION_DOT":-2.25e-6,"MEAN_MOTION_DDOT":0},{"OBJECT_NAME":"COSMOS 2242","OBJECT_ID":"1993-024A","EPOCH":"2026-03-17T06:11:41.188704","MEAN_MOTION":14.96581286,"ECCENTRICITY":0.00148987,"INCLINATION":82.5149,"RA_OF_ASC_NODE":259.4752,"ARG_OF_PERICENTER":281.0784,"MEAN_ANOMALY":78.8763,"EPHEMERIS_TYPE":0,"CLASSIFICATION_TYPE":"U","NORAD_CAT_ID":22626,"ELEMENT_SET_NO":999,"REV_AT_EPOCH":78152,"BSTAR":0.00016332184,"MEAN_MOTION_DOT":1.888e-5,"MEAN_MOTION_DDOT":0}]
